{
    "links": {
        "self": "http://www.neowsapp.com/rest/v1/neo/3704079?api_key=iIulBulltgU6a56xZRHN4H3l9WmuAYTsLGpBGhQ2"
    },
    "id": "3704079",
    "neo_reference_id": "3704079",
    "name": "(2014 YQ44)",
    "designation": "2014 YQ44",
    "nasa_jpl_url": "http://ssd.jpl.nasa.gov/sbdb.cgi?sstr=3704079",
    "absolute_magnitude_h": 24.0,
    "estimated_diameter": {
        "kilometers": {
            "estimated_diameter_min": 0.0421264611,
            "estimated_diameter_max": 0.0941976306
        },
        "meters": {
            "estimated_diameter_min": 42.1264610556,
            "estimated_diameter_max": 94.1976305719
        },
        "miles": {
            "estimated_diameter_min": 0.0261761612,
            "estimated_diameter_max": 0.0585316759
        },
        "feet": {
            "estimated_diameter_min": 138.2101784897,
            "estimated_diameter_max": 309.0473542854
        }
    },
    "is_potentially_hazardous_asteroid": false,
    "close_approach_data": [
        {
            "close_approach_date": "2014-12-18",
            "close_approach_date_full": "2014-Dec-18 07:35",
            "epoch_date_close_approach": 1418888100000,
            "relative_velocity": {
                "kilometers_per_second": "4.6203338683",
                "kilometers_per_hour": "16633.2019258093",
                "miles_per_hour": "10335.2248299563"
            },
            "miss_distance": {
                "astronomical": "0.0368499491",
                "lunar": "14.3346301999",
                "kilometers": "5512673.894968417",
                "miles": "3425416.7196494746"
            },
            "orbiting_body": "Earth"
        }
    ],
    "orbital_data": {
        "orbit_id": "3",
        "orbit_determination_date": "2017-04-06 08:36:30",
        "first_observation_date": "2014-12-30",
        "last_observation_date": "2014-12-31",
        "data_arc_in_days": 1,
        "observations_used": 11,
        "orbit_uncertainty": "9",
        "minimum_orbit_intersection": ".00495943",
        "jupiter_tisserand_invariant": "4.921",
        "epoch_osculation": "2457022.5",
        "eccentricity": ".2499162636759347",
        "semi_major_axis": "1.31748475557978",
        "inclination": "4.786067024327035",
        "ascending_node_longitude": "282.5521128254586",
        "orbital_period": "552.3531371889115",
        "perihelion_distance": ".9882238880152793",
        "perihelion_argument": "179.4269043611924",
        "aphelion_distance": "1.646745623144281",
        "perihelion_time": "2457022.621878679304",
        "mean_anomaly": "359.920564722828",
        "mean_motion": ".6517569572106469",
        "equinox": "J2000",
        "orbit_class": {
            "orbit_class_type": "APO",
            "orbit_class_description": "Near-Earth asteroid orbits which cross the Earth’s orbit similar to that of 1862 Apollo",
            "orbit_class_range": "a (semi-major axis) > 1.0 AU; q (perihelion) < 1.017 AU"
        }
    },
    "is_sentry_object": false
}